shop_name,shop_address,lat,lon
BERJAYA TIMES SQUARE EXPERIENCE CENTRE,"G17, GROUND FLOOR, EAST WING, BERJAYA TIMES SQUARE, NO. 1, JALAN IMBI, 55100 KUALA LUMPUR.",3.1421613,101.7106398
BERJAYA TIMES SQUARE EXPERIENCE CENTRE,"NO. 1-10, LEVEL 1, BERJAYA TIMES SQUARE, NO. 1, JALAN IMBI, 55100 KUALA LUMPUR.",3.1421613,101.7106398
"U MOBILE SERVICE CENTRE, AEON AU2 SHOPPING CENTRE","G11, AEON AU2 SHOPPING CENTRE, NO 6, JALAN TAMAN SETIA WANGSA, AU2, BANDAR BARU AMPANG, MUKIM ULU KELANG, 54200 KUALA LUMPUR",3.177034,101.750921
"U MOBILE SERVICE CENTRE, BUKIT TINGGI, KLANG","B-G-10, GROUND FLOOR, BBT ONE, LEBUH BATU NILAM 2, BANDAR BUKIT TINGGI,41200 KLANG, SELANGOR.",3.0087746,101.4395346
"U MOBILE SERVICE CENTRE, SUNWAY PYRAMID","LOT F1.26, 1ST FLOOR, SUNWAY PYRAMID, NO. 3, JALAN PJS 11/15, BANDAR SUNWAY, 46150 PETALING JAYA, SELANGOR.",3.0732775,101.6079493
"U MOBILE SERVICE CENTRE, 1 UTAMA SHOPPING CENTRE","LG313C, 1UTAMA SHOPPING CENTRE (NEW WING), 1, PERSIARAN BANDAR UTAMA, BANDAR UTAMA, 47100 PETALING JAYA, SELANGOR.",3.1507599,101.6154222
"U MOBILE SERVICE CENTRE, QUEENSBAY MALL","2F- 33A & 35 (2ND FLOOR), QUEENSBAY MALL, 100, PERSIARAN BAYAN INDAH, BAYAN LEPAS, 11900, PULAU PINANG.",5.334854,100.306623
"U MOBILE SERVICE CENTRE, SEBERANG JAYA","NO. 50, GROUND FLOOR, JALAN TODAK 2, 13700 SEBERANG JAYA, PULAU PINANG.",5.395812,100.398662
"U MOBILE SERVICE CENTRE, MELAKA","NO. 3, GROUND FLOOR, JALAN MERDEKA, TAMAN MELAKA RAYA, 75250 MELAKA.",2.1897291,102.2530193
"U MOBILE SERVICE CENTRE, SEREMBAN","GROUND FLOOR, NO. 135-1, JALAN TUN DR. ISMAIL, 70200 SEREMBAN, NEGERI SEMBILAN",2.7334955,101.9353611
"U MOBILE SERVICE CENTRE, TAMAN MOLEK, JOHOR BAHRU","GROUND FLOOR, NO. 73, JALAN MOLEK 1/29, TAMAN MOLEK, 81100 JOHOR BAHRU, JOHOR.",1.5328582,103.7899867
"U MOBILE SERVICE CENTRE, IPOH PARADE MALL","S36, 2ND FLOOR, IPOH PARADE MALL, 105, JALAN SULTAN ABDUL JALIL, 30450 IPOH, PERAK.",4.597172,101.090072
AMG WORLD SDN BHD,"LOT L1-33A, LEVEL 1 SETIA CITY MALL, NO 7, PERSIARAN SETIA DAGANG, BANDAR SETIA ALAM, SEKSYEN U13, 40170 SHAH ALAM, SELANGOR",3.108951,101.4613414
AMG WORLD SDN BHD (S2),"LOT S25, SECOND FLOOR, NO 1, PERSIARAN BATU NILAM, 41200 KLANG, SELANGOR",2.9936074,101.4444716
AUDIO GROUP COMMUNICATION SDN. BHD.,"SPECTRUM SHOPPING MALL, G-01-B, GROUND FLOOR 68000 AMPANG SELANGOR",3.1459168,101.7646676
CELLULAR WAN COMMUNICATION SDN BHD,"BAZAAR RAKYAT LOT 8&9, JALAN MEDAN NIAGA, MEDAN NIAGA KUALA SELANGOR 45000 KUALA SELANGOR SELANGOR",3.319636,101.270907
CKD MOBILE SDN BHD,"GIANT HYPERMARKET SERI KEMBANGAN LOT F27, GIANT HYPERMARKET SERI KEMBANGAN, JALAN PUTRA PERMAI, BANDAR PUTRA PERMAI, 43300 SERI KEMBANGAN, SELANGOR",2.9838193,101.6632445
CKD MOBILE SDN BHD (S2),"AEON TAMAN EQUINE SHOPPING CENTRE LOT LG-16, LOWER GROUND FLOOR, JALAN EQUINE, TAMAN EQUINE, BANDAR PUTRA PERMAI, 43300 SERI KEMBANGAN, SELANGOR",2.9947583,101.6746333
FIRST ONE MOBILE SDN BHD,"P14,TESCO MUTIARA DAMANSARA, 47800 PETALING JAYA SELANGOR",3.1596384,101.6130219
FIRST ONE MOBILE SDN BHD (S2),PAVILION KUALA LUMPUR LOT: TL1.100.00 LEVEL 1 55100 KUALA LUMPUR WILAYAH PERSEKUTUAN,3.1489943,101.7135148
FIRST ONE MOBILE SDN BHD (S3),"LOT 3-43,SUNWAY VELOCITY MALL, 55100 KUALA LUMPUR WILAYAH PERSEKUTUAN",3.1269582,101.7246162
FIRST ONE MOBILE SDN BHD (S4),"LOT L2-74, LEVEL 2 ARRIVALS, GATEWAY@KLIA2, TERMINAL KLIA2, 64000, KLIA ,SELANGOR",2.744084,101.685902
I LINK MOBILE SDN BHD,"LOT S38 2ND FLOOR,KL FESTIVAL CITY, 67 JALAN TAMAN IBU KOTA 53300 KUALA LUMPUR",3.2046409,101.7207633
I LINK MOBILE SDN BHD (S2),"LOT NO T2C-01A& 01B, LEVEL 4, SKY AVENUE GENTING HIGHLANDS 69000 PAHANG",3.4247694,101.7962419
INFINITY ONE MARKETING SDN BHD,"NO 39 JALAN MANIS 3, TAMAN SEGAR, 56100 KUALA LUMPUR.",3.0899273,101.7432431
INFINITY ONE MARKETING SDN BHD (S2),"GROUND FLOOR, 65 JALAN USJ 10/1A, 47620 SUBANG JAYA, SELANGOR",3.050222,101.583926
LZX TELECOMMUNICATION SDN. BHD.,"LOT NO 1F-39, 1ST FLOOR, PARADIGM MALL, 47301 PETALING JAYA, SELANGOR",3.1051171,101.5959701
MCOM DISTRIBUTION SDN. BHD.,"NO. 19-G JLN MERANTI 1A SEKSYEN 3 BANDAR UTAMA, 44300 BATANG KALI, SELANGOR",3.4635049,101.6524391
META SUCCESS SDN BHD,"10K, 10J, JALAN SS6/12, KELANA JAYA, 47301 PETALING JAYA, SELANGOR",3.104965,101.598941
META SUCCESS SDN BHD (S2),"NSK KOTA DAMANSARA, LOT F19, NO1, JALAN KENYALANG 11/1, SEKSYEN 11, KOTA DAMANSARA, PJU 5, 47810 PETALING JAYA, SELANGOR",3.1591733,101.5921194
SNE NETWORK SDN BHD,"NO.12G, JALAN SG 1/2, TAMAN SERI GOMBAK, 68100 BATU CAVES, SELANGOR.",3.2364587,101.6988719
U TOP UP SDN BHD,"NO. 21-E,JALAN MAHSURI, 45300 SUNGAI BESAR, SELANGOR",3.67461,100.9859459
U ZON SDN BHD,"56, JALAN BRP 1/2, BUKIT RAHMAN PUTRA, 47000 SG BULOH, SELANGOR",3.2115986,101.5617634
U ZON SDN BHD (S2),"GF-17, JALAN METRO PERDANA BARAT 1, TAMAN USAHAWAN KEPONG UTARA, KL.",3.2149119,101.6414496
YEWNIC FIRST MARKETING SDN BHD,"LOT 1-05A, WANGSA WALK MALL, WANGSA AVENUE 9, JALAN WANGSA PERDANA 1, 53300 KUALA LUMPUR.",3.1991127,101.7425669
IAZZ SURIA COMMUNICATION SDN BHD,"PT 14631, JALAN LEBAI SARAS KCP KEMAMAN, CHUKAI, 24000 KEMAMAN, TERENGGANU.",4.2322233,103.4222136
IAZZ SURIA COMMUNICATION SDN BHD (S2),"B38, GROUND FLOOR, JALAN KURNIA JAYA 3, 25150 KUANTAN PAHANG",3.782173,103.2871603
K & Y MOBILE SDN BHD,"LOT 3928, TINGKAT BAWAH, JALAN AIR JERNIH, 20100 KUALA TERENGGANU, TERENGGANU",5.3285319,103.1356288
KUSZAI COMMUNICATION SDN BHD,"PT18082-GF 10021 JALAN BESAR SURA GATE, 23000 DUNGUN, TERENGGANU",4.771898,103.4219222
KUSZAI COMMUNICATION SDN BHD (S2),"PT 35403-1, DATARAN AUSTIN, JALAN GONG BADAK, KAMPUNG WAKAF TEMBESU 21300 KUALA TERENGGANU TERENGGANU",5.3580855,103.0962945
SECOND STATION SDN BHD,"3.23 TINGKAT 3, KB MALL, JALAN HAMZAH,15050 KOTA BHARU, KELANTAN",6.117304,102.240069
SECOND STATION SDN BHD (S2),"PT 658, SEKSYEN 27, JALAN SRI CEMERLANG, 15000 KOTA BHARU, KELANTAN",6.1303173,102.247397
U ZON SDN BHD (S3),"NO. 3, GROUND FLOOR, JALAN SUDIRMAN, 28000, TEMERLOH, PAHANG",3.4488308,102.4152163
YES DC SDN BHD,"G41, GROUND FLOOR, KUANTAN PARADE,JALAN HAJI ABDUL RAHMAN,25000, KUANTAN, PAHANG",3.805490499999999,103.32348
YES DC SDN BHD (S2),"A37, GROUND FLOOR, JALAN TUN ISMAIL 1, KUANTAN PERDANA, 25000 KUANTAN PAHANG",3.8160488,103.3281645
TYFONG BROADBAND HOUSE SDN BHD (S4),"PT 633, (GROUND FLOOR), KOMPLEKS PERNIAGAAN HUMAIRAH, PUSAT BANDAR TANAH MERAH, KELANTAN",5.8057916,102.1477075
MEGA TELECOMMUNICATIONS NETWORK MKTG S/B,"UNIT 5/G6, GROUND FLOOR, API API CENTRE, JLN CENTRE POINT, 88100 KOTA KINABALU, SABAH",5.974281899999999,116.0698314
METRO MEGATECH SDN. BHD.,"LOT 2379, JALAN BOULEVARD COMMERCIAL CENTRE 98000 MIRI SARAWAK",4.4141431,114.0113277
METRO MEGATECH SDN. BHD. (S2),"GROUND FLOOR, LOT 2593, CENTRAL PARK, ROCK ROAD, KUCHING, SARAWAK. 93200 KUCHING SARAWAK",1.5352018,110.3399797
EASY LINE INTERNATIONAL SDN. BHD.,"SUBLOT 10 (LOT5318), DESA ILMU PHASE 25, JALAN DATUK MOHD MUSA, 94300 KOTA SAMARAHAN, SARAWAK.",1.4562132,110.4492298
ARISTO CZM SDN BHD,"GF LOT19,LEBUH SIBC BANDAR SERI ISKANDAR, 32610, BANDAR SERI ISKANDAR, PERAK",4.355568,100.97017
C N T TELECOMMUNICATION SDN BHD,"LOT NO F21, FIRST FLOOR, C/O TESCO MANJUNG, LOT 16051 MUKIM SETIAWAN, 32040 DAERAH MANJUNG, PERAK",4.2076857,100.6726268
C N T TELECOMMUNICATION SDN BHD (S2),"NO.116,JLN BALDWIN 3,BALDWIN BUSINESS CENTER, 35000 TAPAH, PERAK.",4.196,101.263
DTS MOBILITY SDN BHD,"131-G, PT 641 DENAI INTAN, BANDAR BARU, 36000 TELUK INTAN, PERAK",4.0188982,101.0206483
HI TECH FUTURE TECHNOLOGY ENTERPRISE S/B,"LOT G-33, GROUND FLOOR, TAIPING SENTRAL MALL, JALAN ISTANA LARUT, 34000 TAIPING, PERAK",4.8655911,100.7315518
HI TECH FUTURE TECHNOLOGY ENTERPRISE S/B (S2),"LOT 2-17, SECOND FLOOR, 1ST AVENUE, 182, JALAN MAGAZINE 10300 PULAU PINANG PULAU PINANG",5.4132364,100.3311741
HYPER MOBILE SDN BHD,"G28, TESCO EXTRA SEBERANG PRAI, NO 2762, PERSIARAN SEMBILANG, 13700, SEBERANG JAYA, PULAU PINANG",5.405751599999999,100.4057512
IDEKA MAJU SDN BHD,"LOT G-41, GROUND FLOOR, JITRA MALL, 06000 JITRA, KEDAH",6.261108999999999,100.4185303
NEW MOBILE TECHNOLOGY SDN BHD,"29, GROUND FLOOR, PERSIARAN GREENTOWN 7, GREENTOWN BUSINESS CENTRE, 30450, IPOH, PERAK",4.599247000000001,101.096138
NEW MOBILE TECHNOLOGY SDN BHD (S2),"LOT F21, AEON MALL KINTA CITY SHOPPING CENTRE, JALAN TEH LEAN SWEE, 31400, IPOH, PERAK",4.613376,101.118516
NEW MOBILE TECHNOLOGY SDN. BHD. (S3),"ARAS 1, LOT NO 5, TAMAN PERTIWI INDAH, SERIAB 1000 KANGAR PERLIS",6.415392,100.183029
SIXTY EIGHT DISTRIBUTION SDN BHD,"G41, G FLOOR 2323 TESCO BKT MERTAJAM, JALAN ROZHAN, 14000 BUKIT MERTAJAM, PULAU PINANG",5.316377999999999,100.4754894
SMART2U WORLD SDN BHD,"MYDIN MALL BUKIT MERTAJAM, LOT S-03, MUKIM 06, JALAN BARU, DAERAH SEBERANG PERAI TENGAH, 14000, PULAU PINANG",5.3679725,100.4149069
SMART2U WORLD SDN BHD (S2),"LOT 1F-37, 1ST FLOOR KULIM CENTRAL SHOPPING CENTRE,NO 1 JALAN KLC SATU 9000 KULIM KEDAH",5.3856454,100.5466989
U INSTANT COMMUNICATION SDN BHD,"LOT G.09, GROUND FLOOR, RAPID MALL SERI INTAN 36000 TELUK INTAN PERAK",4.0171277,101.0273661
U NETWORK MOBILE CENTRE SDN. BHD.,"LOT F-09, 1ST FLOOR, SUNSHINE FARLIM MALL, 294 JALAN THEAN TEIK 11500 AYER ITAM PULAU PINANG",5.395849399999999,100.2862218
UMB NETWORK SDN. BHD.,"NO. 41, JALAN PANGGUNG WAYANG 35500 BIDOR PERAK",4.112341,101.2890713
USUN CENTRE SDN BHD,"LOT 4-03, AMAN CENTRAL, NO1, LEBUHRAYA DARUL AMAN,ALOR SETAR 5100 ALOR SETAR KEDAH",6.124969699999999,100.3664572
USUN CENTRE SDN BHD (S2),"NO 425-D, GROUND FLOOR, JALAN BURMAH, 10350 PULAU TIKUS, PULAU PINANG",5.432522899999999,100.3095873
USUN CENTRE SDN BHD (S3),"LOT NO 2A, GROUND FLOOR, AMAN JAYA MALL, 08000, SUNGAI PETANI, KEDAH",5.674035,100.5095428
VICOMM MOBILE SDN BHD,"7110, TAMAN AMAN JAYA, JALAN RAJA UDA, 12300 BUTTERWORTH, PULAU PINANG",5.4216264,100.3810278
YEAN MOBILE NETWORK SDN BHD,"NO 15B, TAMAN SENTOSA, JALAN LUMUT, 32000, SETIAWAN, PERAK",4.215938,100.692154
YEAN MOBILE NETWORK SDN BHD (S2),"17, JALAN SERI SENTOSA 1, 32400 AYER TAWAR PERAK",4.2935126,100.7528787
YOUR MOBILE ENTERPRISE SDN BHD,"NO 11, JALAN DAENG SELILI, 33000 KUALA KANGSAR, PERAK",4.7768291,100.9421803
101 BUSINESS SOLUTION SDN BHD,"LOT 21-B, 1ST FLOOR, SEREMBAN GATEWAY, OFF JALAN SUNGAI UJONG, 70200 SEREMBAN NEGERI SEMBILAN",2.7167752,101.9194177
BROADBAND JUNCTION SDN BHD,"59, JALAN SUTERA TANJUNG 8/2, TAMAN SUTERA UTAMA ,81300 SKUDAI , JOHOR",1.5153777,103.6676148
BROADBAND JUNCTION SDN BHD (S2),"NO 5, JALAN BUKIT INDAH 16/12, 79100 NUSAJAYA, JOHOR",1.4805769,103.6645759
BROADBAND JUNCTION SDN BHD (S3),"NO 19, JALAN DEDAP 4, 81100 JOHOR BHARU, JOHOR",1.5402406,103.8044122
BROADBAND JUNCTION SDN BHD (S4),"S 39, AEON BANDAR MELAKA, NO. 2, JALAN LAGENDA, TAMAN LAGENDA, 75400 MELAKA",2.2148518,102.2463583
BROADBAND JUNCTION SDN BHD (S5),"GROUND FLOOR OF NO.83, JALAN TUN ISMAIL, 25000 KUANTAN, PAHANG",3.811753399999999,103.3251594
CL PD TELECOMMUNICATION SDN BHD,"NO. 9-G, PD WATERFRONT, JALAN WATERFRONT 2, 71000 PORT DICKSON, NEGERI SEMBILAN.",2.5223,101.8011
CM COM SDN BHD,"14 (GROUND FLOOR), JALAN KONG SANG, 70000 SEREMEBAN, NEGERI SEREMBAN.",2.727908,101.936517
EXCEL ADVANTECH SDN BHD,"NO. 65, JALAN AUSTIN HEIGHTS 3, TAMAN MOUNT AUSTIN, 81100 JOHOR BAHRU, JOHOR",1.5613231,103.7799104
EXCEL ADVANTECH SDN BHD (S2),"NO 19, JALAN PERMAS 10, 81750, MASAI, JOHOR",1.497031,103.815062
EXCEL ADVANTECH SDN BHD (S3),"NO 75, JALAN SUTERA, TAMAN SENTOSA, 80150, JOHOR BHARU, JOHOR",1.493191,103.770021
FIRST MOBILE WORLD SDN BHD,"NO 57-2,JALAN RAMBUTAN, 86000 KLUANG, JOHOR.",2.0393002,103.3216878
FIRST MOBILE WORLD SDN BHD (S2),"NO 25B, JALAN DATO TAN SENG LEONG, 86000 KLUANG, JOHOR",2.0351808,103.3206976
FIRST MOMENT COMMUNICATION SDN BHD,"36 JALAN KUNDANG, TAMAN BUKIT PASIR, 83000 BATU PAHAT, JOHOR",1.867045,102.939715
FIRST MOMENT COMMUNICATION SDN BHD (S2),"G08, GROUND FLOOR, BATU PAHAT MALL, 83000 BATU PAHAT, JOHOR.",1.8638514,102.9620855
HP NINETY SIX (M) SDN BHD,"NO 29-G, JALAN BPS 3,BANDAR PRIMA SENAWANG, 70450 SEREMBAN, NEGERI SEMBILAN",2.7013659,101.9807497
I LOVE BROADBAND SERVICE CENTRE S/B (S2),"BLOCK 06, UNIT G-36, DANGA BAY, 80200, JOHOR BHARU, JOHOR",1.4734945,103.7248764
I LOVE BROADBAND SERVICE CENTRE SDN BHD,"10, JALAN MOLEK 1/12, TAMAN MOLEK, 81100 JOHOR BAHRU, JOHOR",1.529179,103.7896711
I LOVE U MOBILE SDN BHD,"9,JALAN SUSUR DEWATA 1, TAMAN LARKIN PERDANA,80350,JOHOR BAHRU JOHOR",1.5008465,103.7471133
I LOVE U MOBILE SDN BHD (S2),"NO 23, JALAN NIAGA, 81900 KOTA TINGGI, JOHOR",1.7270106,103.9018732
IP LINK SOLUTION SDN BHD,"LOT NO R147, GIANT HYPERMARKET PLENTONG, 81750 MASAI, JOHOR",1.5280571,103.8146585
K & C MOBILE STORE SDN BHD,"102, JALAN BUKIT KEMPAS 1/18, TAMAN BUKIT KEMPAS, 81300 JOHOR BHARU, JOHOR",1.5272022,103.6955114
MLAB COMMUNICATION SDN BHD,"97-2, JALAN RAHMAT, 83000 BATU PAHAT JOHOR",1.8496764,102.9292156
MLAB COMMUNICATION SDN BHD (S2),"LOT G5, LEVEL 1, SQUARE ONE MALL, 83000 BATU PAHAT, JOHOR",1.8652452,102.9494659
NMR MOBILE SDN BHD,"10-G, BLOCK A, JALAN PDS1, 71050 SI RUSA, NEGERI SEMBILAN",2.4744,101.8572
ONE STAND FOUR NETWORK SDN BHD,"L3-654, SUTERA MALL, NO 1, JALAN SUTERA TANJUNG 8/4, TAMAN SUTERA UTAMA, 81300 SEKUDAI, JOHOR",1.5177778,103.6716667
ONE STAND FOUR NETWORK SDN BHD (S2),"NO.20,JALAN NAHKODA 12,TMN UNGKU TUN AMINAH, 81300, JOHOR BHARU, JOHOR",1.5215459,103.6596499
PHENION TECHNO SDN BHD,"45-5,JALAN BAKRI,84000 MUAR, JOHOR",2.04734,102.6022626
PHENION TECHNO SDN BHD (S2),"NO. 9 (GROUND FLOOR) JALAN MELAKA BARU 22, TAMAN MELAKA BARU BATU BERENDAM 75350 MELAKA",2.2411,102.258394
PUSAT TELEKOMUNIKASI EIJI SDN BHD,"NO 215, JALAN KENANGA 29/2,TAMAN INDAHPURA, 81000 KULAI JOHOR.",1.6414472,103.6184087
PUSAT TELEKOMUNIKASI EIJI SDN BHD (S2),"NO 893, JALAN BAKEK, 82000 PONTIAN, JOHOR",1.4812489,103.3913363
PW TWO MOBILE SDN. BHD,"LOT 7, PT 4308, GROUND FLOOR, JALAN SEREMBAN, LUKUT BUSINESS CENTRE, 71010 PORT DICKSON NEGERI SEMBILAN",2.5693351,101.8306268
SERGIO MOBILE SDN BHD,"LOT F-09, FIRST FLOOR MYDIN, HYPERMARKET SEREMBAN S2, LOT 31156, PERSIARAN S2 B7, 70300 SEREMBAN, NEGERI SEMBILAN",2.695417,101.9051065
SERGIO MOBILE SDN BHD (S2),"NO. 124, UNIT A, GROUND FLOOR, JALAN MEWAH 72100 BAHAU NEGERI SEMBILAN",2.8110325,102.4032192
SK MOBILE SDN BHD,"NO 86, JALAN ALI, 84000 MUAR, JOHOR",2.0448447,102.5662341
TP COMMUNICATION SDN BHD,"NO 4, JALAN HAJI MANAN,86000 KLUANG, JOHOR",2.0341113,103.3198038
TP COMMUNICATION SDN BHD (S2),"NO. 32, JALAN KIJANG, TAMAN MOHD YASSIN 86200 SIMPANG RENGAM JOHOR",1.8216763,103.3149441
TWINKLE STAR COMMUNICATION SDN BHD,"NO 114,JALAN SIA HER YAM,85000 SEGAMAT, JOHOR.",2.5034793,102.8219961
TWINKLE STAR COMMUNICATION SDN BHD (S2),"F13A,FIRST FLOOR, 1 SEGAMAT SHOPPING COMPLEX, 85000, SEGAMAT, JOHOR",2.5097601,102.8118128
TYFONG BROADBAND HOUSE SDN BHD,"84, JALAN GAYA 1, TAMAN GAYA, ULU TIRAM, 81800 MASAI, JOHOR",1.5634843,103.8011065
TYFONG BROADBAND HOUSE SDN BHD (S2),"60, JALAN PINANG 52, 81100 JOHOR BHARU, JOHOR",1.560943,103.7586285
TYFONG BROADBAND HOUSE SDN BHD (S3),"19, JALAN KEBADAYAAN, 81300 JOHOR BHARU, JOHOR",1.5383379,103.6290279
ZS NETWORK SDN BHD,"122, JALAN SURIA 2, TAMAN MALIM JAYA, 75250 MELAKA",2.2349058,102.2325159
FIRST MOMENT COMMUNICATION SDN BHD (S3),"NO. KM20-1 (GROUND FLOOR) JALAN PERNIAGAAN JELATANG, PUSAT PERNIAGAAN JELATANG, 78000, ALOR GAJAH MELAKA",2.382211,102.2115611
GLOBAL TONE SDN BHD,"NO. 5, JALAN MOLEK 1/9, TAMAN MOLEK, 81100 JOHOR BAHRU JOHOR",1.5305096,103.7913845
AMATEUR SUCCESS MARKETING SDN BHD,"NO 17G, JALAN RAJA HAROUN, 43000 KAJANG, SELANGOR",2.9921774,101.7901433
AMATEUR SUCCESS MARKETING SDN BHD (S2),"MYDIN MALL SEMENYIH, LOT F-02, FIRST FLOOR, JALAN ANGGERIK PERDANA 1, 43500 SEMENYIH, SELANGOR",2.9751514,101.8250602
U MAX STATION SDN BHD,"B-13, GIANT HYPERMARKET BATU CAVES, LOT 10243, JALAN BATU CAVES, DAERAH GOMBAK, 68100, BATU CAVES, SELANGOR",3.2349479,101.6941011
DICEL MOBILE SDN BHD,"PT 174, GROUND FLOOR JALAN HOSPITAL, TANAH MERAH, 17500 KELANTAN",5.8098242,102.1565329
DICEL MOBILE SDN BHD (S2),"LOT 3287 BANDAR UTAMA, 18300 GUA MUSANG, KELANTAN",4.8848135,101.9741797
PC PLATINUM COMPUTER SALES AND SERVICES,"1 GROUND FLOOR, JALAN PUTRA 1, TAMAN PUTRA DENGKIL, 43800 SELANGOR",2.88527,101.7272423
DY MOBILE TRADING,"LOT 93-10 DAN 93-11, JALAN BESAR, SUNGAI PELEK, SEPANG, 43950 SELANGOR",2.641019,101.715433
CCL COMM. AND COMPUTER SERVICES CENTRE,"NO.158B, JALAN BESAR 42800 TANJUNG SEPAT SELANGOR",2.6619473,101.5584026
LTE PLUS MOBILE,TESCO JENJAROM LOT G15 NO1 JALAN 1/1 TMN SERI JENJAROM 42600 JENJAROM KLANG SELANGOR,2.8736679,101.5023037
I FIX TECHNOLOGY,"NO 7,JALAN ASTANA D13/D,PUSAT NIAGA ASTANA ALAM SEKSYEN 13 42300 BANDAR PUNCAK ALAM SELANGOR",3.2450346,101.4260908
HALO COMMUNICATION,"51, JALAN MENTERI BESAR SATU, SEKINCHAN BUSINESS CENTRE",3.506956,101.10281
PASARAN EKONOMI MAJU JAYA,"73, JLN PEKAN PARIT BARU",4.476688999999999,100.9097489
SMART LINK COMMUNICATION SALES & SERVICE,"NO 20A, JLN BERJUNTAI 1, PUSAT PERNIAGAAN BATANG BERJUNTAI",3.3790929,101.4100404
JET Q MOBILE,"PT 4621, BANDAR GEMAS, 73400 NEGERI SEMBILAN",2.581593,102.612488
URBON PHONE TRADING,"NO 11 JALAN BESAR TAMPIN, 73000 NEGERI SEMBILAN",2.4660612,102.2313393
GIFTED COMMUNICATION,"NO. 8B, LUNDU BAZAAR,94500 LUNDU",1.6694012,109.8523958
LARRY ENTERPRISE,"NO.8 SERIAN BAZAAR, 94700 SERIAN",1.1708955,110.5692179
FIRST MOBILE SERVICES CENTRE,"NO. 10G, TKT BAWAH, JLN SG. MERAH, 96000 SIBU",2.3275438,111.8468848
123 TRADING CO.,"S26, GR. FLOOR, E-MART COMMERCIAL CENTRE, PHASE 1, MIRI",4.429346499999999,114.0075507
YY COMMUNICATION SDN BHD,"A019,1ST FLOOR, FINANCIAL PARK COMPLEX LABUAN",5.276430599999999,115.249388
CHEN COMPUTER DAN HANDPHONE SALE SERVICE,"BLOK B,LOT NO.4,TINGKAT BAWAH,KOMPLEKS SRI RANGAN",,
SK IT MOBILE,"TB.11,LOT 11, MUHIBBAH SQUARE, JALAN MUHIBBAH, 91000 TAWAU, SABAH",4.2835576,117.8911359
LIM MOBILE SHOP,"LOT 126, CENTRE POINT, 91100 LAHAD DATU",5.023404,118.338896
SYARIKAT WELLCOM,"LOT 16B BLOK 4 TINGKAT BAWAH, 90000 SANDAKAN",5.5865619,118.0186087
TELEPOST,"LOT 99 BLOK D4, TINGKAT BAWAH UTAMA PLACE 6&7, JALAN UTARA 90000 SANDAKAN.",5.8646442,118.0577087
VISION COM SALES & SERVICES,"MDLD 3322,GRD FLR,FAJAR CENTRE, 91120 LAHAD DATU, SABAH.",5.0295157,118.3254519
CITY PHONE CARE,"LOT 108 A, JALAN CHIN HWA, 18000 KUALA KRAI, KELANTAN",5.5314751,102.2007018
YOU STORE ENTERPRISE,"15, JALAN BESAR, 17000 PASIR MAS, KELANTAN",6.042412199999999,102.1445712
MUHIBAHFON,"261-B DEPAN PASAR, 16800 PASIR PUTEH, KELANTAN",5.832856,102.4052828
PANDAREE COMMUNICATION,"PT 642 KOMPLEKS PERNIAGAAN HUMAIRA JALAN HUMAIRA, 17500 TANAH MERAH, KELANTAN",5.8057916,102.1477075
GM GADGETS,"63 JALAN PEKAN LAMA, 18300 GUA MUSANG, KELANTAN",4.8837841,101.9667116
RING RING COM TELECOMMUNICATION,"PT 334, BANGUNAN MCA, JALAN PADANG, 18500 MACHANG, KELANTAN",5.7653652,102.2180874
E.Q COMMUNICATION ENTERPRISE,"LOT 315 JALAN BUKIT MOK MEK, 22000 JERETEH, TERENGGANU",5.735397,102.4940481
AZ BROADBAND SOLUTIONS,"NO.9, JALAN DATUK BAHAMAN 3 28000 TEMERLOH PAHANG",3.447955,102.416144
BONACO ENTERPRISE,"NO.3 BAWAH BANGUNAN 36 UNIT, 26400 PUSAT JENGKA PAHANG",3.634443799999999,102.5527505
JJCOM TRADING,"21B, JALAN DATO ABDULLAH 27600 RAUB PAHANG",3.792007,101.8563499
HELLO PHONE SHOP,"LOT69, JALAN ENGKU MUDA MANSOR 26600 PEKAN PAHANG",3.4894966,103.3951526
